{
  "type": "FeatureCollection",
  "features": [
    {
      "type": "Feature",
      "properties": {
        "norad_id": 19071,
        "name": "OSCAR 32",
        "group": "nnss",
        "lat": -47.09068664239918,
        "lon": -163.91011965306313,
        "alt_km": 1073.0725466553104,
        "timestamp": "2025-12-09T21:34:11.676445+00:00",
        "meta_object_name": "OSCAR 32",
        "meta_object_id": "1988-033B",
        "meta_epoch": "2025-12-09T12:03:27.412704",
        "meta_mean_motion": 13.2795343,
        "meta_eccentricity": 0.0188095,
        "meta_inclination": 90.322,
        "meta_ra_of_asc_node": 16.4241,
        "meta_arg_of_pericenter": 175.7825,
        "meta_mean_anomaly": 315.8544,
        "meta_ephemeris_type": 0,
        "meta_classification_type": "U",
        "meta_norad_cat_id": 19071,
        "meta_element_set_no": 999,
        "meta_rev_at_epoch": 82222,
        "meta_bstar": 0.00020819121,
        "meta_mean_motion_dot": 1.12e-06,
        "meta_mean_motion_ddot": 0,
        "tle_line1": "1 19071U 88033B   25343.50240061  .00000112  00000+0  20819-3 0  9991",
        "tle_line2": "2 19071  90.3220  16.4241 0188095 175.7825 315.8544 13.27953430822223"
      },
      "geometry": {
        "type": "Point",
        "coordinates": [
          -163.91011965306313,
          -47.09068664239918
        ]
      }
    },
    {
      "type": "Feature",
      "properties": {
        "norad_id": 19223,
        "name": "NOVA 2",
        "group": "nnss",
        "lat": 65.8093250319909,
        "lon": -101.75282873958803,
        "alt_km": 1166.9435010420475,
        "timestamp": "2025-12-09T21:34:11.676455+00:00",
        "meta_object_name": "NOVA 2",
        "meta_object_id": "1988-052A",
        "meta_epoch": "2025-12-09T11:58:35.893056",
        "meta_mean_motion": 13.22935434,
        "meta_eccentricity": 0.00308605,
        "meta_inclination": 89.9871,
        "meta_ra_of_asc_node": 78.2764,
        "meta_arg_of_pericenter": 25.6927,
        "meta_mean_anomaly": 345.5119,
        "meta_ephemeris_type": 0,
        "meta_classification_type": "U",
        "meta_norad_cat_id": 19223,
        "meta_element_set_no": 999,
        "meta_rev_at_epoch": 80905,
        "meta_bstar": 0.00022127001,
        "meta_mean_motion_dot": 1.02e-06,
        "meta_mean_motion_ddot": 0,
        "tle_line1": "1 19223U 88052A   25343.49902654  .00000102  00000+0  22127-3 0  9995",
        "tle_line2": "2 19223  89.9871  78.2764 0030860  25.6927 345.5119 13.22935434809059"
      },
      "geometry": {
        "type": "Point",
        "coordinates": [
          -101.75282873958803,
          65.8093250319909
        ]
      }
    },
    {
      "type": "Feature",
      "properties": {
        "norad_id": 19419,
        "name": "OSCAR 25",
        "group": "nnss",
        "lat": -10.127923317400167,
        "lon": 20.24111288204838,
        "alt_km": 1110.263448971994,
        "timestamp": "2025-12-09T21:34:11.676490+00:00",
        "meta_object_name": "OSCAR 25",
        "meta_object_id": "1988-074A",
        "meta_epoch": "2025-12-09T13:27:06.963264",
        "meta_mean_motion": 13.42622529,
        "meta_eccentricity": 0.00943274,
        "meta_inclination": 90.0349,
        "meta_ra_of_asc_node": 20.2337,
        "meta_arg_of_pericenter": 255.0703,
        "meta_mean_anomaly": 259.8994,
        "meta_ephemeris_type": 0,
        "meta_classification_type": "U",
        "meta_norad_cat_id": 19419,
        "meta_element_set_no": 999,
        "meta_rev_at_epoch": 82597,
        "meta_bstar": 0.00023781849,
        "meta_mean_motion_dot": 1.46e-06,
        "meta_mean_motion_ddot": 0,
        "tle_line1": "1 19419U 88074A   25343.56049726  .00000146  00000+0  23782-3 0  9992",
        "tle_line2": "2 19419  90.0349  20.2337 0094327 255.0703 259.8994 13.42622529825978"
      },
      "geometry": {
        "type": "Point",
        "coordinates": [
          20.24111288204838,
          -10.127923317400167
        ]
      }
    },
    {
      "type": "Feature",
      "properties": {
        "norad_id": 19420,
        "name": "OSCAR 31",
        "group": "nnss",
        "lat": -52.871141980660674,
        "lon": -159.46406305085878,
        "alt_km": 1039.895850660656,
        "timestamp": "2025-12-09T21:34:11.676501+00:00",
        "meta_object_name": "OSCAR 31",
        "meta_object_id": "1988-074B",
        "meta_epoch": "2025-12-09T12:06:07.808256",
        "meta_mean_motion": 13.42583896,
        "meta_eccentricity": 0.00926038,
        "meta_inclination": 90.0367,
        "meta_ra_of_asc_node": 20.583,
        "meta_arg_of_pericenter": 249.3335,
        "meta_mean_anomaly": 238.1831,
        "meta_ephemeris_type": 0,
        "meta_classification_type": "U",
        "meta_norad_cat_id": 19420,
        "meta_element_set_no": 999,
        "meta_rev_at_epoch": 82607,
        "meta_bstar": 0.00020450542,
        "meta_mean_motion_dot": 1.27e-06,
        "meta_mean_motion_ddot": 0,
        "tle_line1": "1 19420U 88074B   25343.50425704  .00000127  00000+0  20451-3 0  9991",
        "tle_line2": "2 19420  90.0367  20.5830 0092603 249.3335 238.1831 13.42583896826078"
      },
      "geometry": {
        "type": "Point",
        "coordinates": [
          -159.46406305085878,
          -52.871141980660674
        ]
      }
    }
  ]
}